COSMOS 2058             
1 20465U 90010A   26087.11948942  .00005074  00000+0  29807-3 0  9992
2 20465  82.4687  29.2669 0007431 270.8689  89.1690 15.11484298945029
SL-14 R/B               
1 20466U 90010B   26087.16717846  .00000543  00000+0  62922-4 0  9997
2 20466  82.4996 250.0270 0018573 236.6748 123.2689 14.83585646931222
SL-14 R/B               
1 20511U 90018B   26087.06771381  .00000450  00000+0  53461-4 0  9994
2 20511  82.5236 205.9151 0016998  35.9464 324.2890 14.82162673925301
HST                     
1 20580U 90037B   26086.81958352  .00007794  00000+0  25492-3 0  9998
2 20580  28.4724 276.2993 0001643 339.2633  20.7895 15.29755748776098
SL-16 R/B               
1 20625U 90046B   26086.93568725  .00000263  00000+0  16050-3 0  9996
2 20625  70.9974 259.5902 0016317 275.6901  84.2361 14.15015654850978
COSMOS 2084             
1 20663U 90055A   26086.91892438  .00002668  00000+0  19688-3 0  9998
2 20663  62.7892 273.3985 0014196 195.6384 164.4280 15.05747385939064
SL-6 R/B(2)             
1 20666U 90055D   26086.99306006  .00001886  00000+0  15058-3 0  9998
2 20666  62.7831 191.6024 0027799 351.2331   8.8279 15.03680586940946
SL-8 R/B                
1 20775U 90078B   26087.11808867  .00012216  00000+0  36186-3 0  9995
2 20775  82.9022 234.7274 0358556 311.8564  45.2553 14.89612537812040
SL-8 R/B                
1 21088U 91006B   26087.21781235  .00000085  00000+0  70098-4 0  9997
2 21088  82.9445 156.2712 0021884 346.8990  66.8918 13.77497032766627
OKEAN-3                 
1 21397U 91039A   26087.09756087  .00002148  00000+0  14964-3 0  9990
2 21397  82.5165 319.0083 0012326 268.6709  91.3106 15.04909050867809
COSMOS 2151             
1 21422U 91042A   26087.22650963  .00002642  00000+0  20913-3 0  9994
2 21422  82.4945  65.7893 0012462   5.2352 354.9000 15.00183000865979
SL-14 R/B               
1 21423U 91042B   26087.05713375  .00000480  00000+0  57662-4 0  9993
2 21423  82.4955 202.9621 0017152 175.8892 184.2466 14.81847669855794
