CCSDS_OMM_VERS = 2.0
CREATION_DATE  = 
ORIGINATOR     = 

OBJECT_NAME    = COSMOS 2058
OBJECT_ID      = 1990-010A
CENTER_NAME    = EARTH
REF_FRAME      = TEME
TIME_SYSTEM    = UTC
MEAN_ELEMENT_THEORY = SGP/SGP4

EPOCH          = 2026-03-28T02:52:03.885888
MEAN_MOTION    = 15.11484298
ECCENTRICITY   = .0007431
INCLINATION    = 82.4687
RA_OF_ASC_NODE = 29.2669
ARG_OF_PERICENTER = 270.8689
MEAN_ANOMALY   = 89.1690

EPHEMERIS_TYPE = 0
CLASSIFICATION_TYPE = U
NORAD_CAT_ID   = 20465
ELEMENT_SET_NO = 999
REV_AT_EPOCH   = 94502
BSTAR          = .29807E-3
MEAN_MOTION_DOT = .5074E-4
MEAN_MOTION_DDOT = 0

CCSDS_OMM_VERS = 2.0
CREATION_DATE  = 
ORIGINATOR     = 

OBJECT_NAME    = SL-14 R/B
OBJECT_ID      = 1990-010B
CENTER_NAME    = EARTH
REF_FRAME      = TEME
TIME_SYSTEM    = UTC
MEAN_ELEMENT_THEORY = SGP/SGP4

EPOCH          = 2026-03-28T04:00:44.218944
MEAN_MOTION    = 14.83585646
ECCENTRICITY   = .0018573
INCLINATION    = 82.4996
RA_OF_ASC_NODE = 250.0270
ARG_OF_PERICENTER = 236.6748
MEAN_ANOMALY   = 123.2689

EPHEMERIS_TYPE = 0
CLASSIFICATION_TYPE = U
NORAD_CAT_ID   = 20466
ELEMENT_SET_NO = 999
REV_AT_EPOCH   = 93122
BSTAR          = .62922E-4
MEAN_MOTION_DOT = .543E-5
MEAN_MOTION_DDOT = 0

CCSDS_OMM_VERS = 2.0
CREATION_DATE  = 
ORIGINATOR     = 

OBJECT_NAME    = SL-14 R/B
OBJECT_ID      = 1990-018B
CENTER_NAME    = EARTH
REF_FRAME      = TEME
TIME_SYSTEM    = UTC
MEAN_ELEMENT_THEORY = SGP/SGP4

EPOCH          = 2026-03-28T01:37:30.473184
MEAN_MOTION    = 14.82162673
ECCENTRICITY   = .0016998
INCLINATION    = 82.5236
RA_OF_ASC_NODE = 205.9151
ARG_OF_PERICENTER = 35.9464
MEAN_ANOMALY   = 324.2890

EPHEMERIS_TYPE = 0
CLASSIFICATION_TYPE = U
NORAD_CAT_ID   = 20511
ELEMENT_SET_NO = 999
REV_AT_EPOCH   = 92530
BSTAR          = .53461E-4
MEAN_MOTION_DOT = .45E-5
MEAN_MOTION_DDOT = 0

CCSDS_OMM_VERS = 2.0
CREATION_DATE  = 
ORIGINATOR     = 

OBJECT_NAME    = HST
OBJECT_ID      = 1990-037B
CENTER_NAME    = EARTH
REF_FRAME      = TEME
TIME_SYSTEM    = UTC
MEAN_ELEMENT_THEORY = SGP/SGP4

EPOCH          = 2026-03-27T19:40:12.016128
MEAN_MOTION    = 15.29755748
ECCENTRICITY   = .0001643
INCLINATION    = 28.4724
RA_OF_ASC_NODE = 276.2993
ARG_OF_PERICENTER = 339.2633
MEAN_ANOMALY   = 20.7895

EPHEMERIS_TYPE = 0
CLASSIFICATION_TYPE = U
NORAD_CAT_ID   = 20580
ELEMENT_SET_NO = 999
REV_AT_EPOCH   = 77609
BSTAR          = .25492E-3
MEAN_MOTION_DOT = .7794E-4
MEAN_MOTION_DDOT = 0

CCSDS_OMM_VERS = 2.0
CREATION_DATE  = 
ORIGINATOR     = 

OBJECT_NAME    = SL-16 R/B
OBJECT_ID      = 1990-046B
CENTER_NAME    = EARTH
REF_FRAME      = TEME
TIME_SYSTEM    = UTC
MEAN_ELEMENT_THEORY = SGP/SGP4

EPOCH          = 2026-03-27T22:27:23.378400
MEAN_MOTION    = 14.15015654
ECCENTRICITY   = .0016317
INCLINATION    = 70.9974
RA_OF_ASC_NODE = 259.5902
ARG_OF_PERICENTER = 275.6901
MEAN_ANOMALY   = 84.2361

EPHEMERIS_TYPE = 0
CLASSIFICATION_TYPE = U
NORAD_CAT_ID   = 20625
ELEMENT_SET_NO = 999
REV_AT_EPOCH   = 85097
BSTAR          = .1605E-3
MEAN_MOTION_DOT = .263E-5
MEAN_MOTION_DDOT = 0

CCSDS_OMM_VERS = 2.0
CREATION_DATE  = 
ORIGINATOR     = 

OBJECT_NAME    = COSMOS 2084
OBJECT_ID      = 1990-055A
CENTER_NAME    = EARTH
REF_FRAME      = TEME
TIME_SYSTEM    = UTC
MEAN_ELEMENT_THEORY = SGP/SGP4

EPOCH          = 2026-03-27T22:03:15.066432
MEAN_MOTION    = 15.05747385
ECCENTRICITY   = .0014196
INCLINATION    = 62.7892
RA_OF_ASC_NODE = 273.3985
ARG_OF_PERICENTER = 195.6384
MEAN_ANOMALY   = 164.4280

EPHEMERIS_TYPE = 0
CLASSIFICATION_TYPE = U
NORAD_CAT_ID   = 20663
ELEMENT_SET_NO = 999
REV_AT_EPOCH   = 93906
BSTAR          = .19688E-3
MEAN_MOTION_DOT = .2668E-4
MEAN_MOTION_DDOT = 0

CCSDS_OMM_VERS = 2.0
CREATION_DATE  = 
ORIGINATOR     = 

OBJECT_NAME    = SL-6 R/B(2)
OBJECT_ID      = 1990-055D
CENTER_NAME    = EARTH
REF_FRAME      = TEME
TIME_SYSTEM    = UTC
MEAN_ELEMENT_THEORY = SGP/SGP4

EPOCH          = 2026-03-27T23:50:00.389184
MEAN_MOTION    = 15.03680586
ECCENTRICITY   = .0027799
INCLINATION    = 62.7831
RA_OF_ASC_NODE = 191.6024
ARG_OF_PERICENTER = 351.2331
MEAN_ANOMALY   = 8.8279

EPHEMERIS_TYPE = 0
CLASSIFICATION_TYPE = U
NORAD_CAT_ID   = 20666
ELEMENT_SET_NO = 999
REV_AT_EPOCH   = 94094
BSTAR          = .15058E-3
MEAN_MOTION_DOT = .1886E-4
MEAN_MOTION_DDOT = 0

CCSDS_OMM_VERS = 2.0
CREATION_DATE  = 
ORIGINATOR     = 

OBJECT_NAME    = SL-8 R/B
OBJECT_ID      = 1990-078B
CENTER_NAME    = EARTH
REF_FRAME      = TEME
TIME_SYSTEM    = UTC
MEAN_ELEMENT_THEORY = SGP/SGP4

EPOCH          = 2026-03-28T02:50:02.861088
MEAN_MOTION    = 14.89612537
ECCENTRICITY   = .0358556
INCLINATION    = 82.9022
RA_OF_ASC_NODE = 234.7274
ARG_OF_PERICENTER = 311.8564
MEAN_ANOMALY   = 45.2553

EPHEMERIS_TYPE = 0
CLASSIFICATION_TYPE = U
NORAD_CAT_ID   = 20775
ELEMENT_SET_NO = 999
REV_AT_EPOCH   = 81204
BSTAR          = .36186E-3
MEAN_MOTION_DOT = .12216E-3
MEAN_MOTION_DDOT = 0

CCSDS_OMM_VERS = 2.0
CREATION_DATE  = 
ORIGINATOR     = 

OBJECT_NAME    = SL-8 R/B
OBJECT_ID      = 1991-006B
CENTER_NAME    = EARTH
REF_FRAME      = TEME
TIME_SYSTEM    = UTC
MEAN_ELEMENT_THEORY = SGP/SGP4

EPOCH          = 2026-03-28T05:13:38.987040
MEAN_MOTION    = 13.77497032
ECCENTRICITY   = .0021884
INCLINATION    = 82.9445
RA_OF_ASC_NODE = 156.2712
ARG_OF_PERICENTER = 346.8990
MEAN_ANOMALY   = 66.8918

EPHEMERIS_TYPE = 0
CLASSIFICATION_TYPE = U
NORAD_CAT_ID   = 21088
ELEMENT_SET_NO = 999
REV_AT_EPOCH   = 76662
BSTAR          = .70098E-4
MEAN_MOTION_DOT = .85E-6
MEAN_MOTION_DDOT = 0

CCSDS_OMM_VERS = 2.0
CREATION_DATE  = 
ORIGINATOR     = 

OBJECT_NAME    = OKEAN-3
OBJECT_ID      = 1991-039A
CENTER_NAME    = EARTH
REF_FRAME      = TEME
TIME_SYSTEM    = UTC
MEAN_ELEMENT_THEORY = SGP/SGP4

EPOCH          = 2026-03-28T02:20:29.259168
MEAN_MOTION    = 15.04909050
ECCENTRICITY   = .0012326
INCLINATION    = 82.5165
RA_OF_ASC_NODE = 319.0083
ARG_OF_PERICENTER = 268.6709
MEAN_ANOMALY   = 91.3106

EPHEMERIS_TYPE = 0
CLASSIFICATION_TYPE = U
NORAD_CAT_ID   = 21397
ELEMENT_SET_NO = 999
REV_AT_EPOCH   = 86780
BSTAR          = .14964E-3
MEAN_MOTION_DOT = .2148E-4
MEAN_MOTION_DDOT = 0

CCSDS_OMM_VERS = 2.0
CREATION_DATE  = 
ORIGINATOR     = 

OBJECT_NAME    = COSMOS 2151
OBJECT_ID      = 1991-042A
CENTER_NAME    = EARTH
REF_FRAME      = TEME
TIME_SYSTEM    = UTC
MEAN_ELEMENT_THEORY = SGP/SGP4

EPOCH          = 2026-03-28T05:26:10.432032
MEAN_MOTION    = 15.00183000
ECCENTRICITY   = .0012462
INCLINATION    = 82.4945
RA_OF_ASC_NODE = 65.7893
ARG_OF_PERICENTER = 5.2352
MEAN_ANOMALY   = 354.9000

EPHEMERIS_TYPE = 0
CLASSIFICATION_TYPE = U
NORAD_CAT_ID   = 21422
ELEMENT_SET_NO = 999
REV_AT_EPOCH   = 86597
BSTAR          = .20913E-3
MEAN_MOTION_DOT = .2642E-4
MEAN_MOTION_DDOT = 0

CCSDS_OMM_VERS = 2.0
CREATION_DATE  = 
ORIGINATOR     = 

OBJECT_NAME    = SL-14 R/B
OBJECT_ID      = 1991-042B
CENTER_NAME    = EARTH
REF_FRAME      = TEME
TIME_SYSTEM    = UTC
MEAN_ELEMENT_THEORY = SGP/SGP4

EPOCH          = 2026-03-28T01:22:16.356000
MEAN_MOTION    = 14.81847669
ECCENTRICITY   = .0017152
INCLINATION    = 82.4955
RA_OF_ASC_NODE = 202.9621
ARG_OF_PERICENTER = 175.8892
MEAN_ANOMALY   = 184.2466

EPHEMERIS_TYPE = 0
CLASSIFICATION_TYPE = U
NORAD_CAT_ID   = 21423
ELEMENT_SET_NO = 999
REV_AT_EPOCH   = 85579
BSTAR          = .57662E-4
MEAN_MOTION_DOT = .48E-5
MEAN_MOTION_DDOT = 0

